ONEWEB-0678             
1 56714U 23068E   24032.48672660  .00000965  00000+0  25290-2 0  9991
2 56714  87.8961  71.6719 0002031  91.0480 269.0883 13.15542110 35336
ONEWEB-0679             
1 56715U 23068F   24032.58334491  .00000014  00000+0  00000+0 0  9994
2 56715  87.7892  41.3195 0016278  63.8365  91.3851 13.42483992  5507
ONEWEB-0680             
1 56716U 23068G   24032.50977605  .00000022  00000+0  21545-4 0  9998
2 56716  87.9205  56.5246 0001140  74.2401 285.8858 13.21828790 36600
ONEWEB-0681             
1 56717U 23068H   24032.45931629  .00000032  00000+0  46705-4 0  9995
2 56717  87.9204  56.5229 0002341 125.6336 234.5016 13.21826202 36583
ONEWEB-0682             
1 56718U 23068J   24032.14220824 -.00000062  00000+0 -19679-3 0  9994
2 56718  87.8957  71.7915 0001297 100.5023 259.6254 13.16084618 35451
ONEWEB-0683             
1 56719U 23068K   24032.53433677  .00000048  00000+0  94098-4 0  9991
2 56719  87.8959  71.6820 0001523  98.3858 261.7445 13.15548427 35470
ONEWEB-0684             
1 56720U 23068L   24032.54220281  .00000139  00000+0  33446-3 0  9999
2 56720  87.8958  71.7556 0002151  83.3309 276.8067 13.15549336 35300
ONEWEB-0686             
1 56721U 23068M   24032.58334491  .00000014  00000+0  00000+0 0  9991
2 56721  87.8110  41.3393 0015103  64.3290 242.2927 13.41772793 38356
